OBJECT_NAME,OBJECT_ID,EPOCH,MEAN_MOTION,ECCENTRICITY,INCLINATION,RA_OF_ASC_NODE,ARG_OF_PERICENTER,MEAN_ANOMALY,EPHEMERIS_TYPE,CLASSIFICATION_TYPE,NORAD_CAT_ID,ELEMENT_SET_NO,REV_AT_EPOCH,BSTAR,MEAN_MOTION_DOT,MEAN_MOTION_DDOT
STARLINK-30590,2023-160R,2024-11-28T16:59:56.761440,15.02541911,.0001583,43.0023,92.1446,292.0103,68.0571,0,U,58090,999,6282,.37561E-3,.4875E-4,0
STARLINK-30608,2023-160S,2024-11-28T15:09:50.478336,15.02530948,.0002432,43.0054,92.4299,273.1865,86.8699,0,U,58091,999,6281,.32505E-6,-.2E-5,0
STARLINK-30615,2023-160T,2024-11-28T08:43:43.032864,15.02544007,.0001809,43.0054,93.8580,270.7320,89.3315,0,U,58092,999,6277,.11148E-3,.1303E-4,0
STARLINK-30578,2023-160U,2024-11-28T14:31:38.813376,15.02539329,.0001431,43.0041,93.0806,272.5423,87.5256,0,U,58093,999,6277,.13117E-3,.1569E-4,0
STARLINK-30574,2023-160V,2024-11-28T16:35:56.347296,15.02587097,.0001471,43.0011,92.0154,250.3233,109.7451,0,U,58094,999,6282,-.74021E-3,-.10202E-3,0
STARLINK-30570,2023-160W,2024-11-28T14:55:27.256800,15.02558415,.000132,43.0048,92.3556,282.2731,77.7964,0,U,58095,999,6281,.29591E-3,.3798E-4,0
STARLINK-30581,2023-160X,2024-11-28T14:46:01.089696,15.02528835,.000145,43.0035,93.1460,255.8926,104.1755,0,U,58096,999,6280,-.16955E-3,-.2493E-4,0
STARLINK-30594,2023-161A,2024-11-28T19:25:51.521376,15.30184276,.0001029,53.1582,169.4797,82.4476,277.6641,0,U,58097,999,6309,.33769E-4,.641E-5,0
STARLINK-30614,2023-161B,2024-11-28T20:55:21.023904,15.30189539,.0001094,53.1585,169.1561,81.2776,278.8349,0,U,58098,999,6310,.18303E-4,.183E-5,0
STARLINK-30607,2023-161C,2024-11-28T19:25:58.383264,15.30192197,.0000713,53.1631,159.4662,78.8017,281.3064,0,U,58099,999,6283,.63239E-5,-.172E-5,0
STARLINK-30600,2023-161D,2024-11-28T22:43:03.995328,15.30193910,.000076,53.1580,168.9000,107.0883,253.0201,0,U,58100,999,6298,.48224E-4,.1069E-4,0
STARLINK-30605,2023-161E,2024-11-28T22:23:19.479840,15.30177559,.0001547,53.1586,168.8238,70.2745,289.8422,0,U,58101,999,6298,.25169E-3,.7097E-4,0
STARLINK-30592,2023-161F,2024-11-28T06:38:13.839648,15.30191951,.0001114,53.1572,171.8422,81.3775,278.7352,0,U,58102,999,6301,.20095E-4,.236E-5,0
STARLINK-30589,2023-161G,2024-11-28T21:42:24.561216,15.30172163,.0001842,53.1590,169.1667,46.7374,313.3780,0,U,58103,999,6297,-.21061E-3,-.6586E-4,0
STARLINK-30617,2023-161H,2024-11-28T21:46:57.813312,15.30196880,.0000358,53.1598,169.1806,103.1311,256.9730,0,U,58104,999,6297,.29278E-4,.509E-5,0
STARLINK-30616,2023-161J,2024-11-28T21:56:59.221248,15.34248374,.0001042,53.1584,164.2754,118.2230,241.8878,0,U,58105,999,6304,.29628E-3,.9599E-4,0
STARLINK-30612,2023-161K,2024-11-28T06:19:24.151872,15.34230833,.0000771,53.1597,167.3344,93.2620,266.8470,0,U,58106,999,6307,.29413E-4,.613E-5,0
STARLINK-30421,2023-161L,2024-11-28T21:44:01.557312,15.34239658,.0001051,53.1585,164.1983,92.4641,267.6482,0,U,58107,999,6305,.13748E-3,.4249E-4,0
STARLINK-30611,2023-161M,2024-11-28T21:43:33.593088,15.34218827,.0000955,53.1589,164.1737,73.4457,286.6650,0,U,58108,999,6304,-.20253E-4,-.1056E-4,0
STARLINK-30606,2023-161N,2024-11-29T01:46:37.437024,15.30190837,.0001009,53.1580,168.2801,98.4616,261.6499,0,U,58109,999,6300,.58841E-4,.1384E-4,0
STARLINK-30596,2023-161P,2024-11-28T22:05:06.945792,15.30179915,.0001628,53.1585,168.7436,89.5031,270.6156,0,U,58110,999,6298,-.14262E-4,-.781E-5,0
STARLINK-30595,2023-161Q,2024-11-28T21:22:42.039840,15.30188686,.0001531,53.1590,169.2735,84.6878,275.4297,0,U,58111,999,6297,.26432E-4,.423E-5,0
STARLINK-30593,2023-161R,2024-11-28T19:44:05.359200,15.30180175,.0001468,53.1579,169.5564,66.7715,293.3440,0,U,58112,999,6307,.18538E-3,.5132E-4,0
STARLINK-30353,2023-161S,2024-11-28T21:31:49.075392,15.30194072,.0001226,53.1580,169.3109,89.7777,270.3365,0,U,58113,999,6297,.16266E-3,.446E-4,0
STARLINK-30572,2023-161T,2024-11-28T19:39:31.718304,15.30191707,.0001225,53.1591,169.5306,105.7703,254.3433,0,U,58114,999,6296,.6497E-4,.1565E-4,0
STARLINK-30580,2023-161U,2024-11-28T22:09:38.713536,15.30190397,.000054,53.1582,168.7461,57.5598,302.5455,0,U,58115,999,6298,-.49025E-4,-.181E-4,0
STARLINK-30493,2023-161V,2024-11-28T21:27:15.066432,15.30196588,.0001074,53.1593,169.2902,106.6963,253.4155,0,U,58116,999,6310,.40534E-4,.841E-5,0
STARLINK-30601,2023-161W,2024-11-28T21:36:22.365504,15.30194920,.0001161,53.1602,169.3281,85.2147,274.8987,0,U,58117,999,6297,.53969E-4,.1239E-4,0
STARLINK-30795,2023-162A,2024-11-28T18:36:10.165824,15.02542077,.000096,43.0012,144.8059,276.2000,83.8733,0,U,58118,999,6221,.11494E-3,.135E-4,0
STARLINK-30765,2023-162B,2024-11-28T12:38:49.308576,15.02537630,.0000992,43.0016,146.3682,254.1708,105.9025,0,U,58119,999,6217,.23939E-3,.3032E-4,0
