STARLINK-30590          
1 58090U 23160R   24333.70829585  .00004875  00000+0  37561-3 0  9991
2 58090  43.0023  92.1446 0001583 292.0103  68.0571 15.02541911 62820
STARLINK-30608          
1 58091U 23160S   24333.63183424 -.00000200  00000+0  32505-6 0  9994
2 58091  43.0054  92.4299 0002432 273.1865  86.8699 15.02530948 62819
STARLINK-30615          
1 58092U 23160T   24333.36369251  .00001303  00000+0  11148-3 0  9990
2 58092  43.0054  93.8580 0001809 270.7320  89.3315 15.02544007 62773
STARLINK-30578          
1 58093U 23160U   24333.60531034  .00001569  00000+0  13117-3 0  9990
2 58093  43.0041  93.0806 0001431 272.5423  87.5256 15.02539329 62773
STARLINK-30574          
1 58094U 23160V   24333.69162439 -.00010202  00000+0 -74021-3 0  9996
2 58094  43.0011  92.0154 0001471 250.3233 109.7451 15.02587097 62828
STARLINK-30570          
1 58095U 23160W   24333.62184325  .00003798  00000+0  29591-3 0  9990
2 58095  43.0048  92.3556 0001320 282.2731  77.7964 15.02558415 62812
STARLINK-30581          
1 58096U 23160X   24333.61529039 -.00002493  00000+0 -16955-3 0  9998
2 58096  43.0035  93.1460 0001450 255.8926 104.1755 15.02528835 62803
STARLINK-30594          
1 58097U 23161A   24333.80962409  .00000641  00000+0  33769-4 0  9997
2 58097  53.1582 169.4797 0001029  82.4476 277.6641 15.30184276 63099
STARLINK-30614          
1 58098U 23161B   24333.87177111  .00000183  00000+0  18303-4 0  9991
2 58098  53.1585 169.1561 0001094  81.2776 278.8349 15.30189539 63108
STARLINK-30607          
1 58099U 23161C   24333.80970351 -.00000172  00000+0  63239-5 0  9990
2 58099  53.1631 159.4662 0000713  78.8017 281.3064 15.30192197 62838
STARLINK-30600          
1 58100U 23161D   24333.94657402  .00001069  00000+0  48224-4 0  9998
2 58100  53.1580 168.9000 0000760 107.0883 253.0201 15.30193910 62982
STARLINK-30605          
1 58101U 23161E   24333.93286435  .00007097  00000+0  25169-3 0  9991
2 58101  53.1586 168.8238 0001547  70.2745 289.8422 15.30177559 62986
STARLINK-30592          
1 58102U 23161F   24333.27654907  .00000236  00000+0  20095-4 0  9994
2 58102  53.1572 171.8422 0001114  81.3775 278.7352 15.30191951 63013
STARLINK-30589          
1 58103U 23161G   24333.90445094 -.00006586  00000+0 -21061-3 0  9999
2 58103  53.1590 169.1667 0001842  46.7374 313.3780 15.30172163 62972
STARLINK-30617          
1 58104U 23161H   24333.90761358  .00000509  00000+0  29278-4 0  9990
2 58104  53.1598 169.1806 0000358 103.1311 256.9730 15.30196880 62975
STARLINK-30616          
1 58105U 23161J   24333.91457432  .00009599  00000+0  29628-3 0  9993
2 58105  53.1584 164.2754 0001042 118.2230 241.8878 15.34248374 63042
STARLINK-30612          
1 58106U 23161K   24333.26347398  .00000613  00000+0  29413-4 0  9992
2 58106  53.1597 167.3344 0000771  93.2620 266.8470 15.34230833 63078
STARLINK-30421          
1 58107U 23161L   24333.90557358  .00004249  00000+0  13748-3 0  9995
2 58107  53.1585 164.1983 0001051  92.4641 267.6482 15.34239658 63050
STARLINK-30611          
1 58108U 23161M   24333.90524992 -.00001056  00000+0 -20253-4 0  9999
2 58108  53.1589 164.1737 0000955  73.4457 286.6650 15.34218827 63040
STARLINK-30606          
1 58109U 23161N   24334.07404441  .00001384  00000+0  58841-4 0  9991
2 58109  53.1580 168.2801 0001009  98.4616 261.6499 15.30190837 63000
STARLINK-30596          
1 58110U 23161P   24333.92021928 -.00000781  00000+0 -14262-4 0  9992
2 58110  53.1585 168.7436 0001628  89.5031 270.6156 15.30179915 62985
STARLINK-30595          
1 58111U 23161Q   24333.89076435  .00000423  00000+0  26432-4 0  9995
2 58111  53.1590 169.2735 0001531  84.6878 275.4297 15.30188686 62971
STARLINK-30593          
1 58112U 23161R   24333.82228425  .00005132  00000+0  18538-3 0  9996
2 58112  53.1579 169.5564 0001468  66.7715 293.3440 15.30180175 63078
STARLINK-30353          
1 58113U 23161S   24333.89709578  .00004460  00000+0  16266-3 0  9996
2 58113  53.1580 169.3109 0001226  89.7777 270.3365 15.30194072 62979
STARLINK-30572          
1 58114U 23161T   24333.81911711  .00001565  00000+0  64970-4 0  9992
2 58114  53.1591 169.5306 0001225 105.7703 254.3433 15.30191707 62969
STARLINK-30580          
1 58115U 23161U   24333.92336474 -.00001810  00000+0 -49025-4 0  9991
2 58115  53.1582 168.7461 0000540  57.5598 302.5455 15.30190397 62984
STARLINK-30493          
1 58116U 23161V   24333.89392438  .00000841  00000+0  40534-4 0  9997
2 58116  53.1593 169.2902 0001074 106.6963 253.4155 15.30196588 63102
STARLINK-30601          
1 58117U 23161W   24333.90025886  .00001239  00000+0  53969-4 0  9998
2 58117  53.1602 169.3281 0001161  85.2147 274.8987 15.30194920 62970
STARLINK-30795          
1 58118U 23162A   24333.77511766  .00001350  00000+0  11494-3 0  9992
2 58118  43.0012 144.8059 0000960 276.2000  83.8733 15.02542077 62214
STARLINK-30765          
1 58119U 23162B   24333.52695959  .00003032  00000+0  23939-3 0  9999
2 58119  43.0016 146.3682 0000992 254.1708 105.9025 15.02537630 62177
